{
  "type": "FeatureCollection",
  "name": "demo_prescribed_burns",
  "crs": {
    "type": "name",
    "properties": { "name": "urn:ogc:def:crs:OGC:1.3:CRS84" }
  },
  "features": [
    {
      "type": "Feature",
      "properties": {
        "OBJECTID": 1,
        "BURN_NAME": "North Grove Underburn — DEMO",
        "PARK_UNIT": "Calaveras Big Trees State Park",
        "STATUS": "Ready",
        "START_DATE": "2026-10-12T15:00:00Z",
        "END_DATE": "2026-10-14T23:00:00Z",
        "ACRES": 68.5,
        "BURN_BOSS": "To be assigned",
        "OBJECTIVE": "Reduce surface fuels and improve giant sequoia grove resilience.",
        "NOTES": "Sample geometry and attributes only; not an operational burn plan.",
        "LAST_UPDATED": "2026-07-20T18:30:00Z"
      },
      "geometry": {
        "type": "Polygon",
        "coordinates": [[
          [-120.2674, 38.2842],
          [-120.2590, 38.2840],
          [-120.2568, 38.2782],
          [-120.2632, 38.2749],
          [-120.2702, 38.2780],
          [-120.2674, 38.2842]
        ]]
      }
    },
    {
      "type": "Feature",
      "properties": {
        "OBJECTID": 2,
        "BURN_NAME": "River Bend Unit — DEMO",
        "PARK_UNIT": "Caswell Memorial State Park",
        "STATUS": "Planned",
        "START_DATE": "2026-11-03T16:00:00Z",
        "END_DATE": "2026-11-05T23:00:00Z",
        "ACRES": 24.0,
        "BURN_BOSS": "To be assigned",
        "OBJECTIVE": "Reduce hazardous fuels and support riparian habitat objectives.",
        "NOTES": "Sample geometry and attributes only; not an operational burn plan.",
        "LAST_UPDATED": "2026-07-19T17:00:00Z"
      },
      "geometry": {
        "type": "Polygon",
        "coordinates": [[
          [-121.1780, 37.7057],
          [-121.1698, 37.7050],
          [-121.1680, 37.6996],
          [-121.1761, 37.6979],
          [-121.1811, 37.7019],
          [-121.1780, 37.7057]
        ]]
      }
    },
    {
      "type": "Feature",
      "properties": {
        "OBJECTID": 3,
        "BURN_NAME": "Grassland Mosaic Unit — DEMO",
        "PARK_UNIT": "Great Valley Grasslands State Park",
        "STATUS": "Postponed",
        "START_DATE": "2026-09-21T15:00:00Z",
        "END_DATE": "2026-09-22T23:00:00Z",
        "ACRES": 112.0,
        "BURN_BOSS": "To be assigned",
        "OBJECTIVE": "Maintain grassland habitat structure and reduce accumulated thatch.",
        "NOTES": "Sample geometry and attributes only; not an operational burn plan.",
        "LAST_UPDATED": "2026-07-18T21:15:00Z"
      },
      "geometry": {
        "type": "Polygon",
        "coordinates": [[
          [-120.8610, 37.3032],
          [-120.8460, 37.3041],
          [-120.8428, 37.2943],
          [-120.8549, 37.2897],
          [-120.8654, 37.2952],
          [-120.8610, 37.3032]
        ]]
      }
    },
    {
      "type": "Feature",
      "properties": {
        "OBJECTID": 4,
        "BURN_NAME": "Historic District Fuel Unit — DEMO",
        "PARK_UNIT": "Columbia State Historic Park",
        "STATUS": "Complete",
        "START_DATE": "2026-03-05T16:00:00Z",
        "END_DATE": "2026-03-05T23:00:00Z",
        "ACRES": 7.5,
        "BURN_BOSS": "Completed operation",
        "OBJECTIVE": "Reduce fine fuels adjacent to developed and historic resources.",
        "NOTES": "Sample geometry and attributes only; not an operational burn record.",
        "LAST_UPDATED": "2026-03-07T19:00:00Z"
      },
      "geometry": {
        "type": "Polygon",
        "coordinates": [[
          [-120.4167, 38.0369],
          [-120.4113, 38.0366],
          [-120.4102, 38.0322],
          [-120.4155, 38.0311],
          [-120.4187, 38.0340],
          [-120.4167, 38.0369]
        ]]
      }
    }
  ]
}
